STARLINK-30198          
1 57290U 23096A   26188.27661862  .00018379  00000+0  68520-3 0  9997
2 57290  42.9861 272.2573 0007502  10.7391 349.3620 15.27100175165859
STARLINK-30239          
1 57291U 23096B   26188.25040255  .00007660  00000+0  28771-3 0  9998
2 57291  42.9986 267.8825 0000769 302.2785  57.7992 15.27563523165900
STARLINK-30235          
1 57294U 23096E   26188.25683878  .00011668  00000+0  43329-3 0  9994
2 57294  43.0006 267.9278 0002821 281.0905  78.9629 15.27545814165905
STARLINK-30236          
1 57300U 23096L   26188.26069826  .00001658  00000+0  69813-4 0  9999
2 57300  43.0031 267.9459 0001709 186.7906 173.2923 15.27551119165943
STARLINK-30201          
1 57301U 23096M   26188.66328777  .00002324  00000+0  93922-4 0  9996
2 57301  43.0029 265.8101 0000923 277.7773  82.2973 15.27586356165060
STARLINK-30233          
1 57302U 23096N   26188.26455351  .00012043  00000+0  44660-3 0  9995
2 57302  42.9988 267.9579 0001185 217.0650 143.0120 15.27566804165007
STARLINK-30184          
1 57310U 23096W   26188.16950490  .00001517  00000+0  64679-4 0  9994
2 57310  43.0005 239.7083 0001124 270.3078  89.7645 15.27556263165325
STARLINK-6290           
1 57328U 23099A   26188.36986250  .00002792  00000+0  11106-3 0  9993
2 57328  43.0043 296.2006 0001979 282.5401  77.5229 15.27547758165290
STARLINK-6138           
1 57329U 23099B   26188.33016127  .00000044  00000+0  11111-4 0  9993
2 57329  43.0015 296.7603 0001101 276.3133  83.7594 15.27565427164373
STARLINK-6212           
1 57330U 23099C   26188.31603790 -.00000702  00000+0 -15986-4 0  9998
2 57330  43.0027 296.6564 0002026 273.8282  86.2338 15.27568664164377
STARLINK-6234           
1 57331U 23099D   26188.38527674  .00001977  00000+0  81334-4 0  9995
2 57331  42.9993 296.3131 0001954 278.8407  81.2223 15.27582000164387
STARLINK-5831           
1 57332U 23099E   26188.32244937 -.00000117  00000+0  52625-5 0  9996
2 57332  43.0029 296.7039 0001087 266.4009  93.6718 15.27575158164370
STARLINK-5585           
1 57333U 23099F   26188.32630763 -.00000658  00000+0 -14396-4 0  9996
2 57333  43.0010 296.7316 0001056 272.3267  87.7464 15.27570290164371
STARLINK-5589           
1 57334U 23099G   26188.33402253 -.00001350  00000+0 -39553-4 0  9991
2 57334  43.0019 296.7844 0001109 268.8532  91.2193 15.27566207164373
STARLINK-6316           
1 57335U 23099H   26188.35251370  .00001487  00000+0  63611-4 0  9997
2 57335  43.0046 293.5226 0001612 274.4810  85.5858 15.27556828164411
STARLINK-6320           
1 57336U 23099J   26188.34607768 -.00000676  00000+0 -15069-4 0  9998
2 57336  43.0018 293.4507 0001244 275.7468  84.3242 15.27563133164417
STARLINK-6322           
1 57337U 23099K   26188.34173243 -.00000876  00000+0 -22293-4 0  9994
2 57337  43.0025 296.8409 0001978 287.2462  72.8173 15.27569625164372
STARLINK-6374           
1 57338U 23099L   26188.83337963  .00030048  00000+0  10975-2 0  9994
2 57338  43.0025 294.1001 0001451 267.3881 265.3407 15.27565953  5847
STARLINK-6332           
1 57339U 23099M   26188.33788071 -.00000961  00000+0 -25413-4 0  9998
2 57339  43.0024 296.8134 0001152 272.6693  87.4026 15.27563837164374
STARLINK-6321           
1 57340U 23099N   26188.35972757  .00001358  00000+0  58886-4 0  9997
2 57340  43.0040 296.9720 0002441 298.7428  61.3178 15.27567083164379
STARLINK-6377           
1 57341U 23099P   26188.32452816  .00001235  00000+0  54395-4 0  9999
2 57341  43.0013 300.1250 0001541 267.5298  92.5377 15.27583548164332
STARLINK-6375           
1 57342U 23099Q   26188.72812774  .00001189  00000+0  52744-4 0  9991
2 57342  43.0035 291.1733 0001163 269.6078  90.4641 15.27563560164479
STARLINK-6379           
1 57343U 23099R   26188.28663100  .00000997  00000+0  45794-4 0  9993
2 57343  43.0046 297.2871 0001471 272.2042  87.8641 15.27557111164368
STARLINK-6380           
1 57344U 23099S   26188.37370618  .00000349  00000+0  22225-4 0  9998
2 57344  43.0030 296.2166 0001591 268.1879  91.8790 15.27566436164385
STARLINK-6373           
1 57345U 23099T   26188.38735522  .00001169  00000+0  52013-4 0  9998
2 57345  43.0015 299.7334 0001620 271.9353  88.1313 15.27561332164342
STARLINK-6359           
1 57346U 23099U   26188.35378216  .00000594  00000+0  31125-4 0  9991
2 57346  43.0020 293.5205 0001459 262.5309  97.5377 15.27568033164412
STARLINK-6378           
1 57347U 23099V   26188.39377260 -.00001325  00000+0 -38630-4 0  9997
2 57347  43.0013 299.7851 0001156 265.7307  94.3413 15.27577122164344
STARLINK-6372           
1 57348U 23099W   26188.27684223  .00001129  00000+0  50583-4 0  9996
2 57348  43.0001 293.8010 0001257 198.9734 161.1071 15.27557288164408
STARLINK-6376           
1 57349U 23099X   26188.31910519  .00000105  00000+0  13365-4 0  9992
2 57349  43.0095 293.2738 0003101 301.4249  58.6299 15.27555904165131
STARLINK-6362           
1 57350U 23099Y   26188.32261492  .00001380  00000+0  59713-4 0  9997
2 57350  43.0041 286.2341 0001316 276.9140  83.1561 15.27559542164482
