OBJECT_NAME,OBJECT_ID,EPOCH,MEAN_MOTION,ECCENTRICITY,INCLINATION,RA_OF_ASC_NODE,ARG_OF_PERICENTER,MEAN_ANOMALY,EPHEMERIS_TYPE,CLASSIFICATION_TYPE,NORAD_CAT_ID,ELEMENT_SET_NO,REV_AT_EPOCH,BSTAR,MEAN_MOTION_DOT,MEAN_MOTION_DDOT
STARLINK-30198,2023-096A,2026-07-07T06:38:19.848768,15.27100175,.00075027,42.9861,272.2573,10.7391,349.3620,0,U,57290,999,16585,.68519864E-3,.18379E-3,0
STARLINK-30239,2023-096B,2026-07-07T06:00:34.780320,15.27563523,.00007698,42.9986,267.8825,302.2785,57.7992,0,U,57291,999,16590,.2877125E-3,.766E-4,0
STARLINK-30235,2023-096E,2026-07-07T06:09:50.870592,15.27545814,.00028219,43.0006,267.9278,281.0905,78.9629,0,U,57294,999,16590,.43329148E-3,.11668E-3,0
STARLINK-30236,2023-096L,2026-07-07T06:15:24.329664,15.27551119,.00017095,43.0031,267.9459,186.7906,173.2923,0,U,57300,999,16594,.69812991E-4,.1658E-4,0
STARLINK-30201,2023-096M,2026-07-07T15:55:08.063328,15.27586356,.0000923,43.0029,265.8101,277.7773,82.2973,0,U,57301,999,16506,.93922E-4,.2324E-4,0
STARLINK-30233,2023-096N,2026-07-07T06:20:57.423264,15.27566804,.00011859,42.9988,267.9579,217.0650,143.0120,0,U,57302,999,16500,.4466031E-3,.12043E-3,0
STARLINK-30184,2023-096W,2026-07-07T04:04:05.223360,15.27556263,.00011241,43.0005,239.7083,270.3078,89.7645,0,U,57310,999,16532,.64679492E-4,.1517E-4,0
STARLINK-6290,2023-099A,2026-07-07T08:52:36.120000,15.27547758,.00019797,43.0043,296.2006,282.5401,77.5229,0,U,57328,999,16529,.11105747E-3,.2792E-4,0
STARLINK-6138,2023-099B,2026-07-07T07:55:25.933728,15.27565427,.0001101,43.0015,296.7603,276.3133,83.7594,0,U,57329,999,16437,.11110635E-4,.44E-6,0
STARLINK-6212,2023-099C,2026-07-07T07:35:05.674560,15.27568664,.00020262,43.0027,296.6564,273.8282,86.2338,0,U,57330,999,16437,-.15985973E-4,-.702E-5,0
STARLINK-6234,2023-099D,2026-07-07T09:14:47.910336,15.27582000,.00019545,42.9993,296.3131,278.8407,81.2223,0,U,57331,999,16438,.8133351E-4,.1977E-4,0
STARLINK-5831,2023-099E,2026-07-07T07:44:19.625568,15.27575158,.00010875,43.0029,296.7039,266.4009,93.6718,0,U,57332,999,16437,.5262518E-5,-.117E-5,0
STARLINK-5585,2023-099F,2026-07-07T07:49:52.979232,15.27570290,.0001056,43.0010,296.7316,272.3267,87.7464,0,U,57333,999,16437,-.14396241E-4,-.658E-5,0
STARLINK-5589,2023-099G,2026-07-07T08:00:59.546592,15.27566207,.00011094,43.0019,296.7844,268.8532,91.2193,0,U,57334,999,16437,-.39552971E-4,-.135E-4,0
STARLINK-6316,2023-099H,2026-07-07T08:27:37.183680,15.27556828,.00016123,43.0046,293.5226,274.4810,85.5858,0,U,57335,999,16441,.63611388E-4,.1487E-4,0
STARLINK-6320,2023-099J,2026-07-07T08:18:21.111552,15.27563133,.00012441,43.0018,293.4507,275.7468,84.3242,0,U,57336,999,16441,-.15068608E-4,-.676E-5,0
STARLINK-6322,2023-099K,2026-07-07T08:12:05.681952,15.27569625,.00019785,43.0025,296.8409,287.2462,72.8173,0,U,57337,999,16437,-.22292811E-4,-.876E-5,0
STARLINK-6374,2023-099L,2026-07-07T20:00:04.000032,15.27565953,.0001451,43.0025,294.1001,267.3881,265.3407,0,U,57338,999,584,.10975E-2,.30048E-3,0
STARLINK-6332,2023-099M,2026-07-07T08:06:32.893344,15.27563837,.00011525,43.0024,296.8134,272.6693,87.4026,0,U,57339,999,16437,-.25412869E-4,-.961E-5,0
STARLINK-6321,2023-099N,2026-07-07T08:38:00.462048,15.27567083,.00024415,43.0040,296.9720,298.7428,61.3178,0,U,57340,999,16437,.58885821E-4,.1358E-4,0
STARLINK-6377,2023-099P,2026-07-07T07:47:19.233024,15.27583548,.00015413,43.0013,300.1250,267.5298,92.5377,0,U,57341,999,16433,.54394889E-4,.1235E-4,0
STARLINK-6375,2023-099Q,2026-07-07T17:28:30.236736,15.27563560,.0001163,43.0035,291.1733,269.6078,90.4641,0,U,57342,999,16447,.52744E-4,.1189E-4,0
STARLINK-6379,2023-099R,2026-07-07T06:52:44.918400,15.27557111,.00014715,43.0046,297.2871,272.2042,87.8641,0,U,57343,999,16436,.45793562E-4,.997E-5,0
STARLINK-6380,2023-099S,2026-07-07T08:58:08.213952,15.27566436,.00015916,43.0030,296.2166,268.1879,91.8790,0,U,57344,999,16438,.22225373E-4,.349E-5,0
STARLINK-6373,2023-099T,2026-07-07T09:17:47.491008,15.27561332,.00016202,43.0015,299.7334,271.9353,88.1313,0,U,57345,999,16434,.52013485E-4,.1169E-4,0
STARLINK-6359,2023-099U,2026-07-07T08:29:26.778624,15.27568033,.00014598,43.0020,293.5205,262.5309,97.5377,0,U,57346,999,16441,.31124704E-4,.594E-5,0
STARLINK-6378,2023-099V,2026-07-07T09:27:01.952640,15.27577122,.00011561,43.0013,299.7851,265.7307,94.3413,0,U,57347,999,16434,-.38629503E-4,-.1325E-4,0
STARLINK-6372,2023-099W,2026-07-07T06:38:39.168672,15.27557288,.00012571,43.0001,293.8010,198.9734,161.1071,0,U,57348,999,16440,.50583337E-4,.1129E-4,0
STARLINK-6376,2023-099X,2026-07-07T07:39:30.688416,15.27555904,.00031013,43.0095,293.2738,301.4249,58.6299,0,U,57349,999,16513,.13364515E-4,.105E-5,0
STARLINK-6362,2023-099Y,2026-07-07T07:44:33.929088,15.27559542,.00013167,43.0041,286.2341,276.9140,83.1561,0,U,57350,999,16448,.59712959E-4,.138E-4,0
